{"type": "FeatureCollection", "features": [ {"type": "Feature", "properties": {"norad_id": 40697, "name": "SENTINEL-2A", "group": "resource", "lat": 24.169537218176245, "lon": -117.2605715192796, "alt_km": 788.0865457504315, "timestamp": "2025-12-12T07:43:20.160806+00:00", "meta": {"OBJECT_NAME": "SENTINEL-2A", "OBJECT_ID": "2015-028A", "EPOCH": "2025-12-12T00:17:05.900640", "MEAN_MOTION": 14.30812425, "ECCENTRICITY": 0.00010942, "INCLINATION": 98.5687, "RA_OF_ASC_NODE": 58.5542, "ARG_OF_PERICENTER": 87.7216, "MEAN_ANOMALY": 272.4093, "EPHEMERIS_TYPE": 0, "CLASSIFICATION_TYPE": "U", "NORAD_CAT_ID": 40697, "ELEMENT_SET_NO": 999, "REV_AT_EPOCH": 54696, "BSTAR": 0.00011987368, "MEAN_MOTION_DOT": 2.71e-06, "MEAN_MOTION_DDOT": 0}, "tle": {"line1": "1 40697U 15028A   25346.01187385  .00000271  00000+0  11987-3 0  9993", "line2": "2 40697  98.5687  58.5542 0001094  87.7216 272.4093 14.30812425546962"}}, "geometry": {"type": "Point", "coordinates": [-117.2605715192796, 24.169537218176245]}}, {"type": "Feature", "properties": {"norad_id": 40701, "name": "GAOFEN-8", "group": "resource", "lat": 39.68296076241768, "lon": 158.00353439026077, "alt_km": 448.7620454477228, "timestamp": "2025-12-12T07:43:20.160817+00:00", "meta": {"OBJECT_NAME": "GAOFEN-8", "OBJECT_ID": "2015-030A", "EPOCH": "2025-12-11T23:44:36.597408", "MEAN_MOTION": 15.38505604, "ECCENTRICITY": 0.00115685, "INCLINATION": 97.6912, "RA_OF_ASC_NODE": 164.0932, "ARG_OF_PERICENTER": 140.5706, "MEAN_ANOMALY": 219.6383, "EPHEMERIS_TYPE": 0, "CLASSIFICATION_TYPE": "U", "NORAD_CAT_ID": 40701, "ELEMENT_SET_NO": 999, "REV_AT_EPOCH": 58259, "BSTAR": 0.000485411, "MEAN_MOTION_DOT": 0.0001842, "MEAN_MOTION_DDOT": 0}, "tle": {"line1": "1 40701U 15030A   25345.98931247  .00018420  00000+0  48541-3 0  9992", "line2": "2 40701  97.6912 164.0932 0011568 140.5706 219.6383 15.38505604582595"}}, "geometry": {"type": "Point", "coordinates": [158.00353439026077, 39.68296076241768]}}, {"type": "Feature", "properties": {"norad_id": 40718, "name": "CARBONITE 1 (CBNT-1)", "group": "resource", "lat": 54.6547357728486, "lon": 156.4737759460604, "alt_km": 621.6469723448263, "timestamp": "2025-12-12T07:43:20.160827+00:00", "meta": {"OBJECT_NAME": "CARBONITE 1 (CBNT-1)", "OBJECT_ID": "2015-032D", "EPOCH": "2025-12-12T00:59:39.241824", "MEAN_MOTION": 14.82738978, "ECCENTRICITY": 0.00143364, "INCLINATION": 97.6404, "RA_OF_ASC_NODE": 167.1162, "ARG_OF_PERICENTER": 184.0162, "MEAN_ANOMALY": 176.0939, "EPHEMERIS_TYPE": 0, "CLASSIFICATION_TYPE": "U", "NORAD_CAT_ID": 40718, "ELEMENT_SET_NO": 999, "REV_AT_EPOCH": 56160, "BSTAR": 0.00045951034, "MEAN_MOTION_DOT": 3.667e-05, "MEAN_MOTION_DDOT": 0}, "tle": {"line1": "1 40718U 15032D   25346.04142641  .00003667  00000+0  45951-3 0  9991", "line2": "2 40718  97.6404 167.1162 0014336 184.0162 176.0939 14.82738978561605"}}, "geometry": {"type": "Point", "coordinates": [156.4737759460604, 54.6547357728486]}}, {"type": "Feature", "properties": {"norad_id": 40878, "name": "YAOGAN-27", "group": "resource", "lat": 4.17299574404271, "lon": -24.785040873249272, "alt_km": 1200.6157988790355, "timestamp": "2025-12-12T07:43:20.160837+00:00", "meta": {"OBJECT_NAME": "YAOGAN-27", "OBJECT_ID": "2015-040A", "EPOCH": "2025-12-12T00:24:09.929376", "MEAN_MOTION": 13.16061828, "ECCENTRICITY": 0.00076212, "INCLINATION": 100.1015, "RA_OF_ASC_NODE": 335.669, "ARG_OF_PERICENTER": 288.5074, "MEAN_ANOMALY": 71.5211, "EPHEMERIS_TYPE": 0, "CLASSIFICATION_TYPE": "U", "NORAD_CAT_ID": 40878, "ELEMENT_SET_NO": 999, "REV_AT_EPOCH": 49304, "BSTAR": 0.00095979077, "MEAN_MOTION_DOT": 3.22e-06, "MEAN_MOTION_DDOT": 0}, "tle": {"line1": "1 40878U 15040A   25346.01678159  .00000322  00000+0  95979-3 0  9992", "line2": "2 40878 100.1015 335.6690 0007621 288.5074  71.5211 13.16061828493042"}}, "geometry": {"type": "Point", "coordinates": [-24.785040873249272, 4.17299574404271]}}, {"type": "Feature", "properties": {"norad_id": 40894, "name": "GAOFEN-9 01", "group": "resource", "lat": -23.299626822800466, "lon": 28.615482670214853, "alt_km": 616.9103453742473, "timestamp": "2025-12-12T07:43:20.160847+00:00", "meta": {"OBJECT_NAME": "GAOFEN-9 01", "OBJECT_ID": "2015-047A", "EPOCH": "2025-12-12T01:20:52.352736", "MEAN_MOTION": 14.82419912, "ECCENTRICITY": 0.00284454, "INCLINATION": 97.6545, "RA_OF_ASC_NODE": 25.041, "ARG_OF_PERICENTER": 36.5182, "MEAN_ANOMALY": 323.7965, "EPHEMERIS_TYPE": 0, "CLASSIFICATION_TYPE": "U", "NORAD_CAT_ID": 40894, "ELEMENT_SET_NO": 999, "REV_AT_EPOCH": 55246, "BSTAR": 0.00026571751, "MEAN_MOTION_DOT": 2.093e-05, "MEAN_MOTION_DDOT": 0}, "tle": {"line1": "1 40894U 15047A   25346.05616149  .00002093  00000+0  26572-3 0  9992", "line2": "2 40894  97.6545  25.0410 0028445  36.5182 323.7965 14.82419912552461"}}, "geometry": {"type": "Point", "coordinates": [28.615482670214853, -23.299626822800466]}}, {"type": "Feature", "properties": {"norad_id": 41026, "name": "YAOGAN-28", "group": "resource", "lat": 64.11414681073975, "lon": 108.85053026786642, "alt_km": 482.5476053457305, "timestamp": "2025-12-12T07:43:20.160858+00:00", "meta": {"OBJECT_NAME": "YAOGAN-28", "OBJECT_ID": "2015-064A", "EPOCH": "2025-12-11T23:33:37.221120", "MEAN_MOTION": 15.24333463, "ECCENTRICITY": 0.00123742, "INCLINATION": 97.2804, "RA_OF_ASC_NODE": 123.7951, "ARG_OF_PERICENTER": 128.3829, "MEAN_ANOMALY": 231.8522, "EPHEMERIS_TYPE": 0, "CLASSIFICATION_TYPE": "U", "NORAD_CAT_ID": 41026, "ELEMENT_SET_NO": 999, "REV_AT_EPOCH": 56213, "BSTAR": 0.00050331034, "MEAN_MOTION_DOT": 0.00012278, "MEAN_MOTION_DDOT": 0}, "tle": {"line1": "1 41026U 15064A   25345.98168080  .00012278  00000+0  50331-3 0  9992", "line2": "2 41026  97.2804 123.7951 0012374 128.3829 231.8522 15.24333463562137"}}, "geometry": {"type": "Point", "coordinates": [108.85053026786642, 64.11414681073975]}}, {"type": "Feature", "properties": {"norad_id": 41038, "name": "YAOGAN-29", "group": "resource", "lat": -43.539854797724786, "lon": -178.21017614688105, "alt_km": 626.9864811426196, "timestamp": "2025-12-12T07:43:20.160868+00:00", "meta": {"OBJECT_NAME": "YAOGAN-29", "OBJECT_ID": "2015-069A", "EPOCH": "2025-12-12T00:14:14.462304", "MEAN_MOTION": 14.82879056, "ECCENTRICITY": 2.713e-05, "INCLINATION": 98.0221, "RA_OF_ASC_NODE": 9.1788, "ARG_OF_PERICENTER": 330.2014, "MEAN_ANOMALY": 29.9184, "EPHEMERIS_TYPE": 0, "CLASSIFICATION_TYPE": "U", "NORAD_CAT_ID": 41038, "ELEMENT_SET_NO": 999, "REV_AT_EPOCH": 54288, "BSTAR": 5.2699903e-05, "MEAN_MOTION_DOT": 3.73e-06, "MEAN_MOTION_DDOT": 0}, "tle": {"line1": "1 41038U 15069A   25346.00988961  .00000373  00000+0  52700-4 0  9998", "line2": "2 41038  98.0221   9.1788 0000271 330.2014  29.9184 14.82879056542886"}}, "geometry": {"type": "Point", "coordinates": [-178.21017614688105, -43.539854797724786]}}, {"type": "Feature", "properties": {"norad_id": 41167, "name": "KENT RIDGE 1", "group": "resource", "lat": 9.749753505302818, "lon": -105.76291885771694, "alt_km": 496.1650722325012, "timestamp": "2025-12-12T07:43:20.160879+00:00", "meta": {"OBJECT_NAME": "KENT RIDGE 1", "OBJECT_ID": "2015-077B", "EPOCH": "2025-12-11T22:06:14.080320", "MEAN_MOTION": 15.21626182, "ECCENTRICITY": 0.00085131, "INCLINATION": 14.9787, "RA_OF_ASC_NODE": 217.2158, "ARG_OF_PERICENTER": 119.1546, "MEAN_ANOMALY": 240.9628, "EPHEMERIS_TYPE": 0, "CLASSIFICATION_TYPE": "U", "NORAD_CAT_ID": 41167, "ELEMENT_SET_NO": 999, "REV_AT_EPOCH": 55251, "BSTAR": 0.00026336224, "MEAN_MOTION_DOT": 6.894e-05, "MEAN_MOTION_DDOT": 0}, "tle": {"line1": "1 41167U 15077B   25345.92099630  .00006894  00000+0  26336-3 0  9995", "line2": "2 41167  14.9787 217.2158 0008513 119.1546 240.9628 15.21626182552510"}}, "geometry": {"type": "Point", "coordinates": [-105.76291885771694, 9.749753505302818]}}, {"type": "Feature", "properties": {"norad_id": 41194, "name": "GAOFEN-4", "group": "resource", "lat": -0.12288677359668367, "lon": -57.17206673510354, "alt_km": 35792.99906630373, "timestamp": "2025-12-12T07:43:20.160892+00:00", "meta": {"OBJECT_NAME": "GAOFEN-4", "OBJECT_ID": "2015-083A", "EPOCH": "2025-12-11T20:51:47.818944", "MEAN_MOTION": 1.00269803, "ECCENTRICITY": 0.00034947, "INCLINATION": 0.1685, "RA_OF_ASC_NODE": 81.0254, "ARG_OF_PERICENTER": 106.3109, "MEAN_ANOMALY": 312.1335, "EPHEMERIS_TYPE": 0, "CLASSIFICATION_TYPE": "U", "NORAD_CAT_ID": 41194, "ELEMENT_SET_NO": 999, "REV_AT_EPOCH": 3665, "BSTAR": 0, "MEAN_MOTION_DOT": -3.26e-06, "MEAN_MOTION_DDOT": 0}, "tle": {"line1": "1 41194U 15083A   25345.86930346 -.00000326  00000+0  00000+0 0  9994", "line2": "2 41194   0.1685  81.0254 0003494 106.3109 312.1335  1.00269803 36658"}}, "geometry": {"type": "Point", "coordinates": [-57.17206673510354, -0.12288677359668367]}}, {"type": "Feature", "properties": {"norad_id": 41240, "name": "JASON-3", "group": "resource", "lat": 5.33207754604046, "lon": -23.6754502108381, "alt_km": 1312.7797177199654, "timestamp": "2025-12-12T07:43:20.160903+00:00", "meta": {"OBJECT_NAME": "JASON-3", "OBJECT_ID": "2016-002A", "EPOCH": "2025-12-11T23:21:51.626016", "MEAN_MOTION": 12.87626475, "ECCENTRICITY": 0.00071435, "INCLINATION": 66.0389, "RA_OF_ASC_NODE": 159.4351, "ARG_OF_PERICENTER": 270.7961, "MEAN_ANOMALY": 89.2239, "EPHEMERIS_TYPE": 0, "CLASSIFICATION_TYPE": "U", "NORAD_CAT_ID": 41240, "ELEMENT_SET_NO": 999, "REV_AT_EPOCH": 46314, "BSTAR": 9.3464182e-05, "MEAN_MOTION_DOT": -3.9e-07, "MEAN_MOTION_DDOT": 0}, "tle": {"line1": "1 41240U 16002A   25345.97351419 -.00000039  00000+0  93464-4 0  9990", "line2": "2 41240  66.0389 159.4351 0007143 270.7961  89.2239 12.87626475463149"}}, "geometry": {"type": "Point", "coordinates": [-23.6754502108381, 5.33207754604046]}}]}